#dP2021  2 14  0  0  0.00000000      96 __u+U ITR00 FIT  IAC
## 2145      0.00000000   900.00000000 59259 0.0000000000000
+  117   C06C07C08C09C10C11C12C13C14C16C19C20C21C22C23C24C25
+        C26C27C28C29C30C32C33C34C35C36C37C38C39C40C41C42C43
+        C44C45C46E01E02E03E04E05E07E08E09E11E12E13E14E15E18
+        E19E21E24E25E26E27E30E31E33E36G01G02G03G04G05G06G07
+        G08G09G10G11G12G13G14G15G16G17G18G19G20G21G22G23G24
+        G25G26G27G28G29G30G31G32J01J02J03R01R02R03R04R05R07
+        R08R09R11R12R13R14R15R16R17R18R19R20R21R22R24  0  0
++         8  8  8  8  9  7  7  8  5  8  7  7  8  7  7  7  6
++         8  8  8  7  8  6  8  6  7  5  7  9  6  9  6  7  8
++         8  7  7  8  8  6  8  6  8  8  7  7  7  8  6  8  7
++         8  8  7  6  7  7  7  8  7  7  7  7  6  7  7  7  7
++         8  7  6  7  6  5  7  6  7  8  7  8  6  7  8  7  6
++         7  6  7  8  8  7  7  6 10  8  8  8  6  8  7  6  8
++         6  6  7  6  7  7  7  8  8  7  7  7  8  7  7  0  0
%c M  cc GPS ccc cccc cccc cccc cccc ccccc ccccc ccccc ccccc
%c cc cc ccc ccc cccc cccc cccc cccc ccccc ccccc ccccc ccccc
%f  0.0000000  0.000000000  0.00000000000  0.000000000000000
%f  0.0000000  0.000000000  0.00000000000  0.000000000000000
%i    0    0    0    0      0      0      0      0         0
%i    0    0    0    0      0      0      0      0         0
/* INFORMATION & ANALYSIS CENTER (IAC)      ULTRA-RAPID DATA
/* S/V CLOCKS ARE ALIGNED TO GNSS TIME                      
/* G:C1WC2W R:C1PC2P E:C1XC5X C:C2IC6I J:C1CC2S             
/* PCV:IGS14_2134 OL/AL:FES2004  NONE     YN ORB:CoN CLK:CoN
*  2021 02 14 22 15  0.00000000
PC06  -5825.405290  31714.824033  27843.365923     92.198172
PC07 -20857.114458  23751.830880 -27856.549027   -326.937274
PC08 -20600.615193  36537.783747   1107.774934   -914.010439
PC09   5073.772340  38582.822470  17021.536860    733.001151
PC10  -5773.733008  26371.904398 -32231.076197    -86.421896
PC11  -3815.718738  22065.172133 -16562.056230   -923.073087
PC12 -14384.428490   5241.936237 -23291.076618    798.530987
PC13  -9930.294570  37935.429125  15248.549711    141.725094
PC14 -10637.403188  13694.504888  21900.921158    137.386744
PC16  -3594.330830  32447.293376  26893.732606   -696.181913
PC19   -597.985193 -16063.727413 -22785.944171    728.104759
PC20  18646.522551  -9771.789273 -18290.116652   -915.702918
PC21 -27659.398935  -2710.386206   2645.138335   -838.608754
PC22 -20052.883582 -13265.873950 -14181.934199   -879.925142
PC23   9468.939635  13661.274323 -22416.833818   -876.126156
PC24 -19847.657068  19168.732683   4043.267959   -760.644982
PC25  -6301.044543  23519.227811 -13621.204322   -933.631528
PC26 -20600.323642   5162.869066  18073.723968    948.445906
PC27  17399.940018   5453.728319  21116.140653    483.425157
PC28  14211.664014  22455.351710   8518.640650   -109.450599
PC29  -3690.161986 -26138.786795   9036.946056    352.494744
PC30  10161.044312 -14638.573550  21469.010238    444.680977
PC32  27665.848968   2537.747848  -2587.327838   -894.819240
PC33    550.627361  16092.272717  22797.682814   -961.478380
PC34  -9789.463313  15305.207737 -21193.625726   -739.881324
PC35 -14871.535543 -22107.351439  -8233.148466   -417.728216
PC36   7142.711558 -23443.678215  13369.767651   -755.932426
PC37  20485.573919  -3918.532689 -18539.939285   -865.189757
PC38 -18745.314846  37568.768018   3128.290421    130.111792
PC39   -959.123621  32778.991287  26584.868778     28.473302
PC40 -11495.910246  21113.072736 -34653.741764    131.624912
PC41  19838.559885  13367.283876  14426.743338   -930.043368
PC42 -19241.234204   9484.439294  17897.477536   -868.736558
PC43   3180.993940  26092.015301  -9414.038339   -598.107755
PC44 -17704.652206  -4988.519736 -20978.308113     38.981430
PC45  -9436.386963 -13535.630474  22505.518018    362.344908
PC46  19491.140379 -19736.436320  -3251.198212    405.125616
PE01  -2499.548702  18135.991167 -23259.251183  -1046.250626
PE02   2413.216636 -18116.502522  23283.940962    198.448990
PE03  -8368.395033 -21953.957411 -18014.266589   -398.695849
PE04  23147.274519  18384.226891   1579.738489   -709.932751
PE05  11554.748145 -12684.372376 -24120.495031   -304.522088
PE07 -24537.864415  -3887.740488  16100.900340   -500.922439
PE08 -23391.842555 -18101.017668  -1291.432766   6046.897551
PE09  24438.410790   3695.940042 -16277.872678   5765.236286
PE11  16416.409804  -4028.899901  24297.191362   6321.206096
PE12  11487.364117  18297.397161  20251.472957   5355.867687
PE13 -16322.574942   3643.566280 -24412.081408    412.079181
PE14   9621.219860  24405.510004  -9097.701111  -1330.119038
PE15 -11500.213232 -18197.814684 -20299.314552    829.277753
PE18 -21387.420697 -19959.466280  -6074.391611  -1454.041798
PE19   6182.782813  21422.572901  19473.420776    203.937183
PE21 -20939.028018  17543.793391 -11391.573991   -648.493591
PE24  27838.387118  -6082.830925  -8085.566470   -743.921348
PE25  21087.929240 -17487.828702  11226.478653   -526.453122
PE26 -11413.208666  23736.821257 -13498.540928   2147.611412
PE27 -27835.645308   6704.775607   7477.254034     29.761799
PE30 -17622.092412  -8671.782452  22126.740473   3180.772619
PE31  18339.820242   7989.942964 -21816.870429   -478.296658
PE33    -68.278064  29297.838561   4270.977437   -465.704625
PE36  11549.620002 -23276.011458  14181.778207    440.558865
PG01  13921.601977 -19907.337520  10079.875964    761.096353
PG02 -14823.479860  -1968.766019 -21294.395436   -576.902379
PG03  19216.282178 -12996.889771 -12916.817337    -83.148462
PG04  10621.843061 -10976.620301 -21720.762720   -180.249924
PG05 -26105.618470   2863.204199  -4741.588638    -33.711926
PG06  -8247.812247 -16102.795523 -19361.779618     -2.806201
PG07   5595.337959 -25408.744845   4130.002280     58.869361
PG08  15858.821381  -4060.830290  20979.380106    -10.345992
PG09   -701.356017 -19604.963603 -17954.935922   -322.925672
PG10   9851.609090  12853.455412  21209.124706    -61.581089
PG11  12064.143576 -14402.545625  18458.233887    -24.504142
PG12 -22707.460449   9703.115571  -9816.578883     -1.175646
PG13 -19013.895140  -7169.844819  17032.768334     97.272344
PG14  -7454.160200 -13980.315980  21309.124330     96.855907
PG15 -15675.896562   6232.432906  20227.988446   -169.383925
PG16  26084.662593   1344.448290  -6273.324791   -280.192424
PG17 -13451.125720 -22448.624566   4968.473415    394.252231
PG18  -4146.362211  25332.796390   6699.016328    347.292125
PG19 -17452.869113 -19729.907416  -4044.246924    -38.440266
PG20  -3065.710976  16853.535466  20179.545515    524.691842
PG21  15942.619520 -12896.216244  17375.103367     95.614199
PG22  23997.179543 -10384.048230  -3905.620349   -679.177350
PG23  -2661.151806  15743.699704  21195.908349    118.360567
PG24 -15031.526322  16188.462666  14216.524995      2.320110
PG25 -10034.141359  15662.441720 -19109.074193     80.579913
PG26  20865.620655   6333.073737 -15396.135953     44.959719
PG27  20714.300827   8902.948172  14169.968044    -76.398486
PG28 -10079.855196 -13352.766570  21147.046364    615.489921
PG29   -614.169628  19210.798957 -18353.336281   -295.037308
PG30  -3063.834577 -22147.106498  14213.441334   -384.805226
PG31  10408.012609  13473.263371 -20347.132412   -100.116261
PG32  15736.460165  21227.212963   3572.840176     18.745868
PJ01 -28014.554648  22053.205264  27587.093964   -341.175304
PJ02 -36297.140130  20684.856209  -1287.498831      1.899360
PJ03 -19532.302666  24816.083319 -23303.304532     -0.733861
PR01  24292.106199   5625.436997  -5348.873345     75.000178
PR02  12663.647781  -5995.659067 -21290.436266    467.034767
PR03  -5512.102046 -12806.505761 -21306.204776     30.821058
PR04 -20377.184009 -12159.247791  -9323.084314     74.037262
PR05 -23750.580960  -4863.849611   7903.523362     66.511175
PR07   6221.616373  12974.697314  21109.814456    -42.446169
PR08  20358.758722  12236.427166   9380.636114    -57.407917
PR09 -18397.187709  17505.303281  -2737.902001    -21.724855
PR11   8905.637201   6618.308640 -22960.963097      3.361327
PR12  19680.263563  -7676.525084 -14297.426464    205.037245
PR13  18554.800195 -17364.025936   2223.964760    -50.724976
PR14   6375.361851 -16803.368270  18103.650308     60.997199
PR15  -9199.636241  -6558.687875  22882.745988    105.396613
PR16 -19733.056157   8614.347383  13541.123413    -11.329303
PR17  -2376.968554 -25083.097176   4106.925042    400.106347
PR18  -9056.154491 -20229.816980 -12553.568087     66.658295
PR19 -10841.220116  -5738.746477 -22358.940258   -132.052452
PR20  -6517.890572  15375.920725 -19286.797901   -433.394998
PR21   2868.230004  25166.511204  -2917.320132   -187.741454
PR22   9246.605698  19613.182802  13509.815171    -97.904841
PR24   6437.290741 -16096.028450  18737.854924     31.555873
EOF
